start=new Date('2022-04-27T00:00:00.000Z').valueOf();
sats=[{"RA_OF_ASC_NODE":"139.5353","ELEMENT_SET_NO":"999","RCS_SIZE":"LARGE","CLASSIFICATION_TYPE":"U","PERIAPSIS":"546.012","COUNTRY_CODE":"US","REF_FRAME":"TEME","SITE":"AFETR","CENTER_NAME":"EARTH","APOAPSIS":"548.435","FILE":"3417474","BSTAR":"0.00018175000000","INCLINATION":"53.0520","OBJECT_ID":"2020-057T","ECCENTRICITY":"0.00017490","MEAN_ANOMALY":"302.3177","LAUNCH_DATE":"2020-08-18","MEAN_MOTION_DDOT":"0.0000000000000","EPHEMERIS_TYPE":"0","MEAN_MOTION_DOT":"0.00002426","DECAY_DATE":null,"SEMIMAJOR_AXIS":"6925.359","TIME_SYSTEM":"UTC","EPOCH":"2022-04-26T18:01:09.418080","MEAN_ELEMENT_THEORY":"SGP4","GP_ID":"202108587","ARG_OF_PERICENTER":"57.7981","PERIOD":"95.592","NORAD_CAT_ID":"46134","TLE_LINE1":"1 46134U 20057T   22116.75080345  .00002426  00000-0  18175-3 0  9995","REV_AT_EPOCH":"9366","MEAN_MOTION":"15.06396700","TLE_LINE2":"2 46134  53.0520 139.5353 0001749  57.7981 302.3177 15.06396700 93666","OBJECT_NAME":"STARLINK-1638","OBJECT_TYPE":"PAYLOAD"},{"ELEMENT_SET_NO":"999","RA_OF_ASC_NODE":"139.4782","RCS_SIZE":"LARGE","CLASSIFICATION_TYPE":"U","COUNTRY_CODE":"US","PERIAPSIS":"545.886","REF_FRAME":"TEME","SITE":"AFETR","CENTER_NAME":"EARTH","INCLINATION":"53.0540","BSTAR":"0.00014988000000","FILE":"3417474","APOAPSIS":"548.504","ECCENTRICITY":"0.00018900","MEAN_ANOMALY":"312.0906","LAUNCH_DATE":"2020-08-18","OBJECT_ID":"2020-057U","MEAN_MOTION_DDOT":"0.0000000000000","EPHEMERIS_TYPE":"0","MEAN_MOTION_DOT":"0.00001952","TIME_SYSTEM":"UTC","DECAY_DATE":null,"SEMIMAJOR_AXIS":"6925.330","EPOCH":"2022-04-26T18:22:23.018880","MEAN_ELEMENT_THEORY":"SGP4","GP_ID":"202108839","ARG_OF_PERICENTER":"48.0244","PERIOD":"95.592","TLE_LINE1":"1 46135U 20057U   22116.76554420  .00001952  00000-0  14988-3 0  9998","NORAD_CAT_ID":"46135","TLE_LINE2":"2 46135  53.0540 139.4782 0001890  48.0244 312.0906 15.06405994 93660","REV_AT_EPOCH":"9366","MEAN_MOTION":"15.06405994","OBJECT_TYPE":"PAYLOAD","OBJECT_NAME":"STARLINK-1639"},{"RA_OF_ASC_NODE":"168.9604","ELEMENT_SET_NO":"999","CLASSIFICATION_TYPE":"U","RCS_SIZE":"LARGE","PERIAPSIS":"545.829","COUNTRY_CODE":"US","REF_FRAME":"TEME","SITE":"AFETR","CENTER_NAME":"EARTH","FILE":"3417474","APOAPSIS":"548.596","BSTAR":"0.00017331000000","INCLINATION":"53.0519","OBJECT_ID":"2020-057V","ECCENTRICITY":"0.00019980","MEAN_ANOMALY":"314.0455","LAUNCH_DATE":"2020-08-18","EPHEMERIS_TYPE":"0","MEAN_MOTION_DDOT":"0.0000000000000","MEAN_MOTION_DOT":"0.00002301","DECAY_DATE":null,"SEMIMAJOR_AXIS":"6925.348","TIME_SYSTEM":"UTC","EPOCH":"2022-04-26T21:08:15.508320","GP_ID":"202107586","MEAN_ELEMENT_THEORY":"SGP4","PERIOD":"95.592","ARG_OF_PERICENTER":"46.0699","NORAD_CAT_ID":"46136","TLE_LINE1":"1 46136U 20057V   22116.88073505  .00002301  00000-0  17331-3 0  9996","REV_AT_EPOCH":"9326","MEAN_MOTION":"15.06400297","TLE_LINE2":"2 46136  53.0519 168.9604 0001998  46.0699 314.0455 15.06400297 93266","OBJECT_NAME":"STARLINK-1643","OBJECT_TYPE":"PAYLOAD"},{"CENTER_NAME":"EARTH","SITE":"AFETR","OBJECT_ID":"2020-057W","LAUNCH_DATE":"2020-08-18","MEAN_ANOMALY":"326.0333","ECCENTRICITY":"0.00021890","FILE":"3417474","APOAPSIS":"548.741","INCLINATION":"53.0557","BSTAR":"0.00010186000000","RA_OF_ASC_NODE":"159.1780","ELEMENT_SET_NO":"999","REF_FRAME":"TEME","PERIAPSIS":"545.709","COUNTRY_CODE":"US","RCS_SIZE":"LARGE","CLASSIFICATION_TYPE":"U","NORAD_CAT_ID":"46137","TLE_LINE1":"1 46137U 20057W   22116.83373643  .00001236  00000-0  10186-3 0  9995","ARG_OF_PERICENTER":"34.0797","PERIOD":"95.592","MEAN_ELEMENT_THEORY":"SGP4","GP_ID":"202107833","OBJECT_NAME":"STARLINK-1586","OBJECT_TYPE":"PAYLOAD","MEAN_MOTION":"15.06396233","REV_AT_EPOCH":"9339","TLE_LINE2":"2 46137  53.0557 159.1780 0002189  34.0797 326.0333 15.06396233 93391","MEAN_MOTION_DOT":"0.00001236","EPHEMERIS_TYPE":"0","MEAN_MOTION_DDOT":"0.0000000000000","EPOCH":"2022-04-26T20:00:34.827552","SEMIMAJOR_AXIS":"6925.360","DECAY_DATE":null,"TIME_SYSTEM":"UTC"},{"TIME_SYSTEM":"UTC","DECAY_DATE":null,"SEMIMAJOR_AXIS":"6925.347","EPOCH":"2022-04-26T21:33:28.573632","MEAN_MOTION_DDOT":"0.0000000000000","EPHEMERIS_TYPE":"0","MEAN_MOTION_DOT":"0.00003441","TLE_LINE2":"2 46138  53.0536 178.8836 0002119  44.8641 315.2519 15.06400439 93120","REV_AT_EPOCH":"9312","MEAN_MOTION":"15.06400439","OBJECT_TYPE":"PAYLOAD","OBJECT_NAME":"STARLINK-1590","MEAN_ELEMENT_THEORY":"SGP4","GP_ID":"202109088","PERIOD":"95.592","ARG_OF_PERICENTER":"44.8641","NORAD_CAT_ID":"46138","TLE_LINE1":"1 46138U 20057X   22116.89824738  .00003441  00000-0  24977-3 0  9991","RCS_SIZE":"LARGE","CLASSIFICATION_TYPE":"U","COUNTRY_CODE":"US","PERIAPSIS":"545.745","REF_FRAME":"TEME","ELEMENT_SET_NO":"999","RA_OF_ASC_NODE":"178.8836","BSTAR":"0.00024977000000","INCLINATION":"53.0536","APOAPSIS":"548.680","FILE":"3417474","ECCENTRICITY":"0.00021190","MEAN_ANOMALY":"315.2519","LAUNCH_DATE":"2020-08-18","OBJECT_ID":"2020-057X","SITE":"AFETR","CENTER_NAME":"EARTH"},{"ECCENTRICITY":"0.00024220","MEAN_ANOMALY":"323.2694","LAUNCH_DATE":"2020-08-18","OBJECT_ID":"2020-057Z","BSTAR":"0.00011737000000","INCLINATION":"53.0531","APOAPSIS":"548.874","FILE":"3417474","CENTER_NAME":"EARTH","SITE":"AFETR","REF_FRAME":"TEME","CLASSIFICATION_TYPE":"U","RCS_SIZE":"LARGE","PERIAPSIS":"545.520","COUNTRY_CODE":"US","ELEMENT_SET_NO":"999","RA_OF_ASC_NODE":"139.3577","OBJECT_TYPE":"PAYLOAD","OBJECT_NAME":"STARLINK-1594","TLE_LINE2":"2 46140  53.0531 139.3577 0002422  36.8461 323.2694 15.06405418 94935","REV_AT_EPOCH":"9493","MEAN_MOTION":"15.06405418","PERIOD":"95.592","ARG_OF_PERICENTER":"36.8461","TLE_LINE1":"1 46140U 20057Z   22116.79133977  .00001467  00000-0  11737-3 0  9997","NORAD_CAT_ID":"46140","GP_ID":"202109340","MEAN_ELEMENT_THEORY":"SGP4","EPOCH":"2022-04-26T18:59:31.756128","TIME_SYSTEM":"UTC","DECAY_DATE":null,"SEMIMAJOR_AXIS":"6925.332","MEAN_MOTION_DOT":"0.00001467","MEAN_MOTION_DDOT":"0.0000000000000","EPHEMERIS_TYPE":"0"},{"MEAN_MOTION_DOT":"-0.00000110","MEAN_MOTION_DDOT":"0.0000000000000","EPHEMERIS_TYPE":"0","EPOCH":"2022-04-26T18:27:42.122592","TIME_SYSTEM":"UTC","DECAY_DATE":null,"SEMIMAJOR_AXIS":"6925.356","PERIOD":"95.592","ARG_OF_PERICENTER":"50.4924","TLE_LINE1":"1 46141U 20057AA  22116.76923753 -.00000110  00000-0  11555-4 0  9998","NORAD_CAT_ID":"46141","GP_ID":"202108087","MEAN_ELEMENT_THEORY":"SGP4","OBJECT_TYPE":"PAYLOAD","OBJECT_NAME":"STARLINK-1596","TLE_LINE2":"2 46141  53.0532 139.4566 0001874  50.4924 309.6231 15.06397490 93666","REV_AT_EPOCH":"9366","MEAN_MOTION":"15.06397490","ELEMENT_SET_NO":"999","RA_OF_ASC_NODE":"139.4566","REF_FRAME":"TEME","RCS_SIZE":"LARGE","CLASSIFICATION_TYPE":"U","PERIAPSIS":"545.923","COUNTRY_CODE":"US","CENTER_NAME":"EARTH","SITE":"AFETR","MEAN_ANOMALY":"309.6231","ECCENTRICITY":"0.00018740","LAUNCH_DATE":"2020-08-18","OBJECT_ID":"2020-057AA","INCLINATION":"53.0532","BSTAR":"0.00001155500000","APOAPSIS":"548.519","FILE":"3417474"},{"TLE_LINE1":"1 46142U 20057AB  22116.65496834  .00002168  00000-0  16437-3 0  9999","NORAD_CAT_ID":"46142","ARG_OF_PERICENTER":"59.5799","PERIOD":"95.592","MEAN_ELEMENT_THEORY":"SGP4","GP_ID":"202108334","OBJECT_NAME":"STARLINK-1597","OBJECT_TYPE":"PAYLOAD","MEAN_MOTION":"15.06401347","REV_AT_EPOCH":"9308","TLE_LINE2":"2 46142  53.0540 179.9802 0001658  59.5799 300.5354 15.06401347 93087","MEAN_MOTION_DOT":"0.00002168","MEAN_MOTION_DDOT":"0.0000000000000","EPHEMERIS_TYPE":"0","EPOCH":"2022-04-26T15:43:09.264576","SEMIMAJOR_AXIS":"6925.344","DECAY_DATE":null,"TIME_SYSTEM":"UTC","CENTER_NAME":"EARTH","SITE":"AFETR","OBJECT_ID":"2020-057AB","LAUNCH_DATE":"2020-08-18","MEAN_ANOMALY":"300.5354","ECCENTRICITY":"0.00016580","APOAPSIS":"548.358","FILE":"3417474","INCLINATION":"53.0540","BSTAR":"0.00016437000000","RA_OF_ASC_NODE":"179.9802","ELEMENT_SET_NO":"999","REF_FRAME":"TEME","PERIAPSIS":"546.061","COUNTRY_CODE":"US","RCS_SIZE":"LARGE","CLASSIFICATION_TYPE":"U"},{"REF_FRAME":"TEME","CLASSIFICATION_TYPE":"U","RCS_SIZE":"LARGE","PERIAPSIS":"545.953","COUNTRY_CODE":"US","ELEMENT_SET_NO":"999","RA_OF_ASC_NODE":"159.2507","MEAN_ANOMALY":"309.7961","ECCENTRICITY":"0.00018540","LAUNCH_DATE":"2020-08-18","OBJECT_ID":"2020-057AD","INCLINATION":"53.0540","BSTAR":"0.00003591100000","APOAPSIS":"548.521","FILE":"3417474","CENTER_NAME":"EARTH","SITE":"AFETR","EPOCH":"2022-04-26T19:39:21.451392","TIME_SYSTEM":"UTC","DECAY_DATE":null,"SEMIMAJOR_AXIS":"6925.372","MEAN_MOTION_DOT":"0.00000253","MEAN_MOTION_DDOT":"0.0000000000000","EPHEMERIS_TYPE":"0","OBJECT_TYPE":"PAYLOAD","OBJECT_NAME":"STARLINK-1606","TLE_LINE2":"2 46144  53.0540 159.2507 0001854  50.3192 309.7961 15.06392262 81645","REV_AT_EPOCH":"8164","MEAN_MOTION":"15.06392262","PERIOD":"95.593","ARG_OF_PERICENTER":"50.3192","TLE_LINE1":"1 46144U 20057AD  22116.81899828  .00000253  00000-0  35911-4 0  9991","NORAD_CAT_ID":"46144","GP_ID":"202108588","MEAN_ELEMENT_THEORY":"SGP4"},{"APOAPSIS":"548.404","FILE":"3417474","BSTAR":"0.00009077500000","INCLINATION":"53.0533","OBJECT_ID":"2020-057AF","LAUNCH_DATE":"2020-08-18","ECCENTRICITY":"0.00017110","MEAN_ANOMALY":"308.5031","SITE":"AFETR","CENTER_NAME":"EARTH","COUNTRY_CODE":"US","PERIAPSIS":"546.034","CLASSIFICATION_TYPE":"U","RCS_SIZE":"LARGE","REF_FRAME":"TEME","RA_OF_ASC_NODE":"179.0201","ELEMENT_SET_NO":"999","MEAN_MOTION":"15.06398245","REV_AT_EPOCH":"9312","TLE_LINE2":"2 46146  53.0533 179.0201 0001711  51.6111 308.5031 15.06398245 93125","OBJECT_NAME":"STARLINK-1608","OBJECT_TYPE":"PAYLOAD","MEAN_ELEMENT_THEORY":"SGP4","GP_ID":"202108840","TLE_LINE1":"1 46146U 20057AF  22116.86506885  .00001071  00000-0  90775-4 0  9994","NORAD_CAT_ID":"46146","ARG_OF_PERICENTER":"51.6111","PERIOD":"95.592","SEMIMAJOR_AXIS":"6925.354","DECAY_DATE":null,"TIME_SYSTEM":"UTC","EPOCH":"2022-04-26T20:45:41.948640","MEAN_MOTION_DDOT":"0.0000000000000","EPHEMERIS_TYPE":"0","MEAN_MOTION_DOT":"0.00001071"}];
